{
  "type": "FeatureCollection",
  "features": [
    {
      "type": "Feature",
      "properties": {
        "norad_id": 41832,
        "name": "FENGYUN 1C DEB",
        "group": "fengyun-1c-debris",
        "lat": 35.4402217190379,
        "lon": -109.6285408122797,
        "alt_km": 779.0054369963791,
        "timestamp": "2025-12-26T03:50:12.383987+00:00",
        "meta_object_name": "FENGYUN 1C DEB",
        "meta_object_id": "1999-025EYK",
        "meta_epoch": "2025-12-25T03:33:24.860160",
        "meta_mean_motion": 14.24321467,
        "meta_eccentricity": 0.00560792,
        "meta_inclination": 98.7282,
        "meta_ra_of_asc_node": 63.0896,
        "meta_arg_of_pericenter": 190.5379,
        "meta_mean_anomaly": 169.4629,
        "meta_ephemeris_type": 0,
        "meta_classification_type": "U",
        "meta_norad_cat_id": 41832,
        "meta_element_set_no": 999,
        "meta_rev_at_epoch": 47527,
        "meta_bstar": 0.0016089119,
        "meta_mean_motion_dot": 3.735e-05,
        "meta_mean_motion_ddot": 0,
        "tle_line1": "1 41832U 99025EYK 25359.14820440  .00003735  00000+0  16089-2 0  9993",
        "tle_line2": "2 41832  98.7282  63.0896 0056079 190.5379 169.4629 14.24321467475275"
      },
      "geometry": {
        "type": "Point",
        "coordinates": [
          -109.6285408122797,
          35.4402217190379
        ]
      }
    },
    {
      "type": "Feature",
      "properties": {
        "norad_id": 41833,
        "name": "FENGYUN 1C DEB",
        "group": "fengyun-1c-debris",
        "lat": 66.30671999842907,
        "lon": 49.161790545654405,
        "alt_km": 816.8246214559313,
        "timestamp": "2025-12-26T03:50:12.383997+00:00",
        "meta_object_name": "FENGYUN 1C DEB",
        "meta_object_id": "1999-025EYL",
        "meta_epoch": "2025-12-24T17:50:04.722144",
        "meta_mean_motion": 14.25903957,
        "meta_eccentricity": 0.00549776,
        "meta_inclination": 98.7466,
        "meta_ra_of_asc_node": 68.2859,
        "meta_arg_of_pericenter": 189.2865,
        "meta_mean_anomaly": 170.7303,
        "meta_ephemeris_type": 0,
        "meta_classification_type": "U",
        "meta_norad_cat_id": 41833,
        "meta_element_set_no": 999,
        "meta_rev_at_epoch": 47535,
        "meta_bstar": 0.0017571524,
        "meta_mean_motion_dot": 4.21e-05,
        "meta_mean_motion_ddot": 0,
        "tle_line1": "1 41833U 99025EYL 25358.74311021  .00004210  00000+0  17572-2 0  9996",
        "tle_line2": "2 41833  98.7466  68.2859 0054977 189.2865 170.7303 14.25903957475350"
      },
      "geometry": {
        "type": "Point",
        "coordinates": [
          49.161790545654405,
          66.30671999842907
        ]
      }
    },
    {
      "type": "Feature",
      "properties": {
        "norad_id": 43213,
        "name": "FENGYUN 1C DEB",
        "group": "fengyun-1c-debris",
        "lat": 2.635665105383832,
        "lon": -115.12337743522116,
        "alt_km": 775.4720883847767,
        "timestamp": "2025-12-26T03:50:12.384007+00:00",
        "meta_object_name": "FENGYUN 1C DEB",
        "meta_object_id": "1999-025EYM",
        "meta_epoch": "2025-12-25T15:12:03.929184",
        "meta_mean_motion": 14.23940421,
        "meta_eccentricity": 0.0055617,
        "meta_inclination": 98.7316,
        "meta_ra_of_asc_node": 63.9485,
        "meta_arg_of_pericenter": 190.6764,
        "meta_mean_anomaly": 169.3238,
        "meta_ephemeris_type": 0,
        "meta_classification_type": "U",
        "meta_norad_cat_id": 43213,
        "meta_element_set_no": 999,
        "meta_rev_at_epoch": 40556,
        "meta_bstar": 0.0015635,
        "meta_mean_motion_dot": 3.6e-05,
        "meta_mean_motion_ddot": 0,
        "tle_line1": "1 43213U 99025EYM 25359.63337881  .00003600  00000+0  15635-2 0  9991",
        "tle_line2": "2 43213  98.7316  63.9485 0055617 190.6764 169.3238 14.23940421405563"
      },
      "geometry": {
        "type": "Point",
        "coordinates": [
          -115.12337743522116,
          2.635665105383832
        ]
      }
    },
    {
      "type": "Feature",
      "properties": {
        "norad_id": 43214,
        "name": "FENGYUN 1C DEB",
        "group": "fengyun-1c-debris",
        "lat": 63.06027390282324,
        "lon": -97.60219211675133,
        "alt_km": 793.083780119614,
        "timestamp": "2025-12-26T03:50:12.384017+00:00",
        "meta_object_name": "FENGYUN 1C DEB",
        "meta_object_id": "1999-025EYN",
        "meta_epoch": "2025-12-25T17:10:34.598208",
        "meta_mean_motion": 14.24217617,
        "meta_eccentricity": 0.0056058,
        "meta_inclination": 98.7343,
        "meta_ra_of_asc_node": 64.3484,
        "meta_arg_of_pericenter": 190.0352,
        "meta_mean_anomaly": 169.9712,
        "meta_ephemeris_type": 0,
        "meta_classification_type": "U",
        "meta_norad_cat_id": 43214,
        "meta_element_set_no": 999,
        "meta_rev_at_epoch": 40588,
        "meta_bstar": 0.0015628,
        "meta_mean_motion_dot": 3.619e-05,
        "meta_mean_motion_ddot": 0,
        "tle_line1": "1 43214U 99025EYN 25359.71567822  .00003619  00000+0  15628-2 0  9993",
        "tle_line2": "2 43214  98.7343  64.3484 0056058 190.0352 169.9712 14.24217617405888"
      },
      "geometry": {
        "type": "Point",
        "coordinates": [
          -97.60219211675133,
          63.06027390282324
        ]
      }
    },
    {
      "type": "Feature",
      "properties": {
        "norad_id": 43358,
        "name": "FENGYUN 1C DEB",
        "group": "fengyun-1c-debris",
        "lat": 50.39625366006309,
        "lon": -51.038856162041235,
        "alt_km": 888.9412888042243,
        "timestamp": "2025-12-26T03:50:12.384028+00:00",
        "meta_object_name": "FENGYUN 1C DEB",
        "meta_object_id": "1999-025EYP",
        "meta_epoch": "2025-12-24T06:23:59.847360",
        "meta_mean_motion": 13.40405385,
        "meta_eccentricity": 0.036752,
        "meta_inclination": 98.6872,
        "meta_ra_of_asc_node": 116.6841,
        "meta_arg_of_pericenter": 173.7601,
        "meta_mean_anomaly": 186.8298,
        "meta_ephemeris_type": 0,
        "meta_classification_type": "U",
        "meta_norad_cat_id": 43358,
        "meta_element_set_no": 999,
        "meta_rev_at_epoch": 53885,
        "meta_bstar": 0.0018975865,
        "meta_mean_motion_dot": 1.51e-05,
        "meta_mean_motion_ddot": 0,
        "tle_line1": "1 43358U 99025EYP 25358.26666490  .00001510  00000+0  18976-2 0  9999",
        "tle_line2": "2 43358  98.6872 116.6841 0367520 173.7601 186.8298 13.40405385538854"
      },
      "geometry": {
        "type": "Point",
        "coordinates": [
          -51.038856162041235,
          50.39625366006309
        ]
      }
    },
    {
      "type": "Feature",
      "properties": {
        "norad_id": 43359,
        "name": "FENGYUN 1C DEB",
        "group": "fengyun-1c-debris",
        "lat": -28.651990646283494,
        "lon": 85.52316618729529,
        "alt_km": 767.38487943783,
        "timestamp": "2025-12-26T03:50:12.384038+00:00",
        "meta_object_name": "FENGYUN 1C DEB",
        "meta_object_id": "1999-025EYQ",
        "meta_epoch": "2025-12-25T04:21:01.480896",
        "meta_mean_motion": 14.23267674,
        "meta_eccentricity": 0.00734706,
        "meta_inclination": 99.052,
        "meta_ra_of_asc_node": 79.5201,
        "meta_arg_of_pericenter": 338.2051,
        "meta_mean_anomaly": 21.6005,
        "meta_ephemeris_type": 0,
        "meta_classification_type": "U",
        "meta_norad_cat_id": 43359,
        "meta_element_set_no": 999,
        "meta_rev_at_epoch": 47926,
        "meta_bstar": 0.0020431863,
        "meta_mean_motion_dot": 4.711e-05,
        "meta_mean_motion_ddot": 0,
        "tle_line1": "1 43359U 99025EYQ 25359.18126714  .00004711  00000+0  20432-2 0  9998",
        "tle_line2": "2 43359  99.0520  79.5201 0073470 338.2051  21.6005 14.23267674479262"
      },
      "geometry": {
        "type": "Point",
        "coordinates": [
          85.52316618729529,
          -28.651990646283494
        ]
      }
    },
    {
      "type": "Feature",
      "properties": {
        "norad_id": 45526,
        "name": "FENGYUN 1C DEB",
        "group": "fengyun-1c-debris",
        "lat": -36.12109884503135,
        "lon": -114.1481748717274,
        "alt_km": 777.7913929390043,
        "timestamp": "2025-12-26T03:50:12.384049+00:00",
        "meta_object_name": "FENGYUN 1C DEB",
        "meta_object_id": "1999-025EYR",
        "meta_epoch": "2025-12-24T03:40:31.181088",
        "meta_mean_motion": 14.26028974,
        "meta_eccentricity": 0.00548774,
        "meta_inclination": 98.7621,
        "meta_ra_of_asc_node": 70.308,
        "meta_arg_of_pericenter": 190.2359,
        "meta_mean_anomaly": 169.7707,
        "meta_ephemeris_type": 0,
        "meta_classification_type": "U",
        "meta_norad_cat_id": 45526,
        "meta_element_set_no": 999,
        "meta_rev_at_epoch": 43539,
        "meta_bstar": 0.001800182,
        "meta_mean_motion_dot": 4.324e-05,
        "meta_mean_motion_ddot": 0,
        "tle_line1": "1 45526U 99025EYR 25358.15313867  .00004324  00000+0  18002-2 0  9999",
        "tle_line2": "2 45526  98.7621  70.3080 0054877 190.2359 169.7707 14.26028974435399"
      },
      "geometry": {
        "type": "Point",
        "coordinates": [
          -114.1481748717274,
          -36.12109884503135
        ]
      }
    }
  ]
}